{"type": "FeatureCollection", "features": [{"type": "Feature", "properties": {"norad_id": 25590, "name": "COSMOS 2361", "group": "musson", "lat": -52.49451560283367, "lon": -34.58359728961928, "alt_km": 990.2902013440689, "timestamp": "2025-12-25T09:48:52.560172+00:00", "meta": {"OBJECT_NAME": "COSMOS 2361", "OBJECT_ID": "1998-076A", "EPOCH": "2025-12-24T22:06:25.566336", "MEAN_MOTION": 13.73218834, "ECCENTRICITY": 0.00303123, "INCLINATION": 82.9345, "RA_OF_ASC_NODE": 335.0765, "ARG_OF_PERICENTER": 230.3469, "MEAN_ANOMALY": 186.1312, "EPHEMERIS_TYPE": 0, "CLASSIFICATION_TYPE": "U", "NORAD_CAT_ID": 25590, "ELEMENT_SET_NO": 999, "REV_AT_EPOCH": 35278, "BSTAR": 5.2732414e-05, "MEAN_MOTION_DOT": 6.4e-07, "MEAN_MOTION_DDOT": 0}, "tle": {"line1": "1 25590U 98076A   25358.92112924  .00000064  00000+0  52732-4 0  9996", "line2": "2 25590  82.9345 335.0765 0030312 230.3469 186.1312 13.73218834352786"}}, "geometry": {"type": "Point", "coordinates": [-34.58359728961928, -52.49451560283367]}}, {"type": "Feature", "properties": {"norad_id": 26818, "name": "COSMOS 2378", "group": "musson", "lat": 60.21091088951925, "lon": 2.855813966721875, "alt_km": 986.5078774140675, "timestamp": "2025-12-25T09:48:52.560194+00:00", "meta": {"OBJECT_NAME": "COSMOS 2378", "OBJECT_ID": "2001-023A", "EPOCH": "2025-12-24T18:37:53.800032", "MEAN_MOTION": 13.74142959, "ECCENTRICITY": 0.00331574, "INCLINATION": 82.9272, "RA_OF_ASC_NODE": 350.7992, "ARG_OF_PERICENTER": 171.1572, "MEAN_ANOMALY": 2.4655, "EPHEMERIS_TYPE": 0, "CLASSIFICATION_TYPE": "U", "NORAD_CAT_ID": 26818, "ELEMENT_SET_NO": 999, "REV_AT_EPOCH": 23088, "BSTAR": 3.8839071e-05, "MEAN_MOTION_DOT": 5.2e-07, "MEAN_MOTION_DDOT": 0}, "tle": {"line1": "1 26818U 01023A   25358.77631713  .00000052  00000+0  38839-4 0  9990", "line2": "2 26818  82.9272 350.7992 0033157 171.1572   2.4655 13.74142959230883"}}, "geometry": {"type": "Point", "coordinates": [2.855813966721875, 60.21091088951925]}}, {"type": "Feature", "properties": {"norad_id": 27436, "name": "COSMOS 2389", "group": "musson", "lat": -45.71758502358633, "lon": -69.68171570984524, "alt_km": 977.1076783096296, "timestamp": "2025-12-25T09:48:52.560207+00:00", "meta": {"OBJECT_NAME": "COSMOS 2389", "OBJECT_ID": "2002-026A", "EPOCH": "2025-12-24T22:06:49.894848", "MEAN_MOTION": 13.75155957, "ECCENTRICITY": 0.00470943, "INCLINATION": 82.9513, "RA_OF_ASC_NODE": 297.9673, "ARG_OF_PERICENTER": 27.4918, "MEAN_ANOMALY": 34.7494, "EPHEMERIS_TYPE": 0, "CLASSIFICATION_TYPE": "U", "NORAD_CAT_ID": 27436, "ELEMENT_SET_NO": 999, "REV_AT_EPOCH": 18316, "BSTAR": 6.8126465e-05, "MEAN_MOTION_DOT": 8.1e-07, "MEAN_MOTION_DDOT": 0}, "tle": {"line1": "1 27436U 02026A   25358.92141082  .00000081  00000+0  68126-4 0  9997", "line2": "2 27436  82.9513 297.9673 0047094  27.4918  34.7494 13.75155957183168"}}, "geometry": {"type": "Point", "coordinates": [-69.68171570984524, -45.71758502358633]}}, {"type": "Feature", "properties": {"norad_id": 27818, "name": "COSMOS 2398", "group": "musson", "lat": 38.25380308501887, "lon": 77.76219648000313, "alt_km": 977.2421658393041, "timestamp": "2025-12-25T09:48:52.560219+00:00", "meta": {"OBJECT_NAME": "COSMOS 2398", "OBJECT_ID": "2003-023A", "EPOCH": "2025-12-24T21:14:05.590752", "MEAN_MOTION": 13.72387025, "ECCENTRICITY": 0.00327049, "INCLINATION": 82.9482, "RA_OF_ASC_NODE": 263.7489, "ARG_OF_PERICENTER": 79.4671, "MEAN_ANOMALY": 353.335, "EPHEMERIS_TYPE": 0, "CLASSIFICATION_TYPE": "U", "NORAD_CAT_ID": 27818, "ELEMENT_SET_NO": 999, "REV_AT_EPOCH": 12983, "BSTAR": 6.8522529e-05, "MEAN_MOTION_DOT": 7.8e-07, "MEAN_MOTION_DDOT": 0}, "tle": {"line1": "1 27818U 03023A   25358.88478693  .00000078  00000+0  68523-4 0  9992", "line2": "2 27818  82.9482 263.7489 0032704  79.4671 353.3350 13.72387025129833"}}, "geometry": {"type": "Point", "coordinates": [77.76219648000313, 38.25380308501887]}}, {"type": "Feature", "properties": {"norad_id": 28380, "name": "COSMOS 2407", "group": "musson", "lat": 23.769700475466266, "lon": 20.39215968206252, "alt_km": 997.2791665864916, "timestamp": "2025-12-25T09:48:52.560231+00:00", "meta": {"OBJECT_NAME": "COSMOS 2407", "OBJECT_ID": "2004-028A", "EPOCH": "2025-12-24T20:54:03.918816", "MEAN_MOTION": 13.76314966, "ECCENTRICITY": 0.00397506, "INCLINATION": 82.9594, "RA_OF_ASC_NODE": 203.9106, "ARG_OF_PERICENTER": 21.6844, "MEAN_ANOMALY": 349.4802, "EPHEMERIS_TYPE": 0, "CLASSIFICATION_TYPE": "U", "NORAD_CAT_ID": 28380, "ELEMENT_SET_NO": 999, "REV_AT_EPOCH": 7590, "BSTAR": 3.5455867e-05, "MEAN_MOTION_DOT": 5e-07, "MEAN_MOTION_DDOT": 0}, "tle": {"line1": "1 28380U 04028A   25358.87087869  .00000050  00000+0  35456-4 0  9992", "line2": "2 28380  82.9594 203.9106 0039750  21.6844 349.4802 13.76314966 75907"}}, "geometry": {"type": "Point", "coordinates": [20.39215968206252, 23.769700475466266]}}, {"type": "Feature", "properties": {"norad_id": 28521, "name": "COSMOS 2414", "group": "musson", "lat": -46.97279687117176, "lon": 2.699264575330859, "alt_km": 959.1073755654234, "timestamp": "2025-12-25T09:48:52.560241+00:00", "meta": {"OBJECT_NAME": "COSMOS 2414", "OBJECT_ID": "2005-002A", "EPOCH": "2025-12-24T22:20:42.993888", "MEAN_MOTION": 13.87904494, "ECCENTRICITY": 0.00414128, "INCLINATION": 82.9488, "RA_OF_ASC_NODE": 175.4409, "ARG_OF_PERICENTER": 105.8782, "MEAN_ANOMALY": 254.6951, "EPHEMERIS_TYPE": 0, "CLASSIFICATION_TYPE": "U", "NORAD_CAT_ID": 28521, "ELEMENT_SET_NO": 999, "REV_AT_EPOCH": 5964, "BSTAR": 4.3942467e-05, "MEAN_MOTION_DOT": 6.9e-07, "MEAN_MOTION_DDOT": 0}, "tle": {"line1": "1 28521U 05002A   25358.93105317  .00000069  00000+0  43942-4 0  9997", "line2": "2 28521  82.9488 175.4409 0041412 105.8782 254.6951 13.87904494 59647"}}, "geometry": {"type": "Point", "coordinates": [2.699264575330859, -46.97279687117176]}}, {"type": "Feature", "properties": {"norad_id": 32052, "name": "COSMOS 2429", "group": "musson", "lat": 39.240593388666795, "lon": 148.1938353295709, "alt_km": 998.9170700727045, "timestamp": "2025-12-25T09:48:52.560252+00:00", "meta": {"OBJECT_NAME": "COSMOS 2429", "OBJECT_ID": "2007-038A", "EPOCH": "2025-12-24T22:39:31.039200", "MEAN_MOTION": 13.75150587, "ECCENTRICITY": 0.00385165, "INCLINATION": 82.9808, "RA_OF_ASC_NODE": 334.3115, "ARG_OF_PERICENTER": 4.2546, "MEAN_ANOMALY": 355.893, "EPHEMERIS_TYPE": 0, "CLASSIFICATION_TYPE": "U", "NORAD_CAT_ID": 32052, "ELEMENT_SET_NO": 999, "REV_AT_EPOCH": 91770, "BSTAR": 5.0012705e-05, "MEAN_MOTION_DOT": 6.3e-07, "MEAN_MOTION_DDOT": 0}, "tle": {"line1": "1 32052U 07038A   25358.94410925  .00000063  00000+0  50013-4 0  9998", "line2": "2 32052  82.9808 334.3115 0038516   4.2546 355.8930 13.75150587917702"}}, "geometry": {"type": "Point", "coordinates": [148.1938353295709, 39.240593388666795]}}, {"type": "Feature", "properties": {"norad_id": 35635, "name": "COSMOS 2454", "group": "musson", "lat": 9.12299874957534, "lon": 160.17863326125797, "alt_km": 917.891441030536, "timestamp": "2025-12-25T09:48:52.560263+00:00", "meta": {"OBJECT_NAME": "COSMOS 2454", "OBJECT_ID": "2009-039A", "EPOCH": "2025-12-24T23:57:14.333184", "MEAN_MOTION": 13.89930197, "ECCENTRICITY": 0.0020005, "INCLINATION": 82.9558, "RA_OF_ASC_NODE": 159.3524, "ARG_OF_PERICENTER": 40.6876, "MEAN_ANOMALY": 74.0739, "EPHEMERIS_TYPE": 0, "CLASSIFICATION_TYPE": "U", "NORAD_CAT_ID": 35635, "ELEMENT_SET_NO": 999, "REV_AT_EPOCH": 83320, "BSTAR": 5.6949e-05, "MEAN_MOTION_DOT": 8.6e-07, "MEAN_MOTION_DDOT": 0}, "tle": {"line1": "1 35635U 09039A   25358.99808256  .00000086  00000+0  56949-4 0  9993", "line2": "2 35635  82.9558 159.3524 0020005  40.6876  74.0739 13.89930197833204"}}, "geometry": {"type": "Point", "coordinates": [160.17863326125797, 9.12299874957534]}}, {"type": "Feature", "properties": {"norad_id": 36519, "name": "COSMOS 2463", "group": "musson", "lat": -61.909062510366596, "lon": 4.016534562291334, "alt_km": 982.8584153603151, "timestamp": "2025-12-25T09:48:52.560273+00:00", "meta": {"OBJECT_NAME": "COSMOS 2463", "OBJECT_ID": "2010-017A", "EPOCH": "2025-12-24T23:55:31.766880", "MEAN_MOTION": 13.71650199, "ECCENTRICITY": 0.0034804, "INCLINATION": 82.9603, "RA_OF_ASC_NODE": 17.7047, "ARG_OF_PERICENTER": 252.7721, "MEAN_ANOMALY": 170.7477, "EPHEMERIS_TYPE": 0, "CLASSIFICATION_TYPE": "U", "NORAD_CAT_ID": 36519, "ELEMENT_SET_NO": 999, "REV_AT_EPOCH": 78405, "BSTAR": 3.3999e-05, "MEAN_MOTION_DOT": 4.6e-07, "MEAN_MOTION_DDOT": 0}, "tle": {"line1": "1 36519U 10017A   25358.99689545  .00000046  00000+0  33999-4 0  9997", "line2": "2 36519  82.9603  17.7047 0034804 252.7721 170.7477 13.71650199784054"}}, "geometry": {"type": "Point", "coordinates": [4.016534562291334, -61.909062510366596]}}]}